OBJECT_NAME,OBJECT_ID,EPOCH,MEAN_MOTION,ECCENTRICITY,INCLINATION,RA_OF_ASC_NODE,ARG_OF_PERICENTER,MEAN_ANOMALY,EPHEMERIS_TYPE,CLASSIFICATION_TYPE,NORAD_CAT_ID,ELEMENT_SET_NO,REV_AT_EPOCH,BSTAR,MEAN_MOTION_DOT,MEAN_MOTION_DDOT
STARLINK-4094,2022-083R,2024-08-24T02:52:32.234592,15.08841359,.0001489,53.2161,179.5952,96.7428,263.3733,0,U,53147,999,11692,.11233E-4,-.109E-5,0
STARLINK-4021,2022-083T,2024-08-24T01:56:59.491968,15.08837090,.0001444,53.2175,169.9689,90.3311,269.7847,0,U,53149,999,11705,.64019E-4,.731E-5,0
STARLINK-4038,2022-083U,2024-08-23T20:05:49.727904,15.08834654,.0001581,53.2170,170.8635,91.0163,269.1010,0,U,53150,999,11701,.72964E-4,.873E-5,0
STARLINK-4040,2022-083V,2024-08-24T02:11:27.989952,15.08844554,.0001457,53.2166,169.7233,100.3913,259.7244,0,U,53151,999,11705,.65892E-4,.761E-5,0
STARLINK-4045,2022-083W,2024-08-23T20:00:31.825152,15.08840386,.0001568,53.2163,170.8810,97.6589,262.4581,0,U,53152,999,11701,.20349E-4,.36E-6,0
STARLINK-4098,2022-083X,2024-08-23T19:44:38.074560,15.08839415,.0001234,53.2147,170.9294,91.4041,268.7092,0,U,53153,999,11701,-.48894E-4,-.1066E-4,0
STARLINK-4077,2022-083Y,2024-08-23T13:33:40.809888,15.08842099,.0001342,53.2172,172.0854,97.8946,262.2199,0,U,53154,999,11634,.57263E-4,.624E-5,0
STARLINK-4088,2022-083Z,2024-08-24T05:06:20.545920,15.08840202,.0001487,53.2171,169.1770,91.8261,268.2901,0,U,53155,999,11707,.97982E-4,.1272E-4,0
STARLINK-4087,2022-083AA,2024-08-24T03:15:02.759904,15.08830534,.0001233,53.2170,169.3982,74.7329,285.3799,0,U,53156,999,11706,.23491E-4,.86E-6,0
STARLINK-4093,2022-083AB,2024-08-23T19:23:25.999584,15.08839674,.0001514,53.2163,170.9963,81.8456,278.2708,0,U,53157,999,11701,.96591E-4,.125E-4,0
STARLINK-4054,2022-083AC,2024-08-24T02:00:52.447104,15.08840790,.0001273,53.2156,169.7542,94.6715,265.4422,0,U,53158,999,11705,-.23377E-4,-.66E-5,0
STARLINK-4111,2022-083AD,2024-08-23T12:51:17.898912,15.08837967,.0001626,53.2188,172.2144,85.1676,274.9501,0,U,53159,999,11634,.59091E-4,.652E-5,0
STARLINK-4096,2022-083AE,2024-08-23T19:28:44.075136,15.08838754,.0001318,53.2158,170.9822,89.8165,270.2978,0,U,53160,999,11701,.69421E-4,.817E-5,0
STARLINK-4055,2022-083AF,2024-08-23T20:32:18.607488,15.08846999,.000136,53.2173,170.7812,86.5467,273.5681,0,U,53161,999,11702,.17724E-3,.2534E-4,0
STARLINK-4114,2022-083AG,2024-08-24T04:51:49.648608,15.08833847,.0001408,53.2174,169.2305,76.0734,284.0415,0,U,53162,999,11707,.2653E-3,.3936E-4,0
STARLINK-4104,2022-083AH,2024-08-24T04:39:55.074816,15.08817270,.0001468,53.2176,169.4057,94.6042,265.5118,0,U,53163,999,11707,-.61048E-4,-.1259E-4,0
STARLINK-4116,2022-083AJ,2024-08-23T12:40:41.841120,15.08834694,.0001479,53.2178,172.2529,107.7379,252.3775,0,U,53164,999,11634,.63704E-4,.726E-5,0
STARLINK-4090,2022-083AK,2024-08-23T20:16:25.397760,15.08837136,.0001231,53.2166,170.8301,92.7711,267.3422,0,U,53165,999,11702,.23675E-4,.89E-6,0
STARLINK-4110,2022-083AL,2024-08-23T18:51:38.439648,15.08832245,.000129,53.2172,171.0963,82.3045,277.8094,0,U,53166,999,11701,.11861E-3,.16E-4,0
STARLINK-3683,2022-083AM,2024-08-23T19:06:52.312320,15.08836783,.0001325,53.2164,156.0358,92.1616,267.9528,0,U,53167,999,11722,.13106E-5,-.267E-5,0
STARLINK-4105,2022-083AN,2024-08-24T02:43:16.527072,15.08830401,.0001338,53.2172,169.6296,97.5523,262.5621,0,U,53168,999,11706,.6666E-5,-.182E-5,0
STARLINK-4117,2022-083AP,2024-08-23T12:13:35.199552,15.08833358,.0001262,53.2166,157.5912,85.7768,274.3368,0,U,53169,999,11717,.39258E-4,.337E-5,0
STARLINK-4095,2022-083AQ,2024-08-24T04:59:02.770080,15.08847445,.0001581,53.2160,164.1506,99.3937,260.7234,0,U,53170,999,11714,.23217E-3,.341E-4,0
STARLINK-4052,2022-083AR,2024-08-24T02:47:12.271200,15.08839518,.000128,53.2164,139.3723,84.2177,275.8961,0,U,53171,999,11748,.14341E-3,.1995E-4,0
STARLINK-4299,2022-083AS,2024-08-24T01:37:40.417824,15.08839781,.0001494,53.2178,164.7427,88.8046,271.3118,0,U,53172,999,11712,.28516E-4,.166E-5,0
STARLINK-4300,2022-083AT,2024-08-24T03:42:13.025952,15.08840918,.0001383,53.2176,144.4283,102.7755,257.3392,0,U,53173,999,11741,.24416E-4,.101E-5,0
STARLINK-4205,2022-083AU,2024-08-23T20:16:28.128864,15.08837714,.0001432,53.2170,180.7638,88.7383,271.3774,0,U,53174,999,11688,.23038E-4,.79E-6,0
STARLINK-4292,2022-083AV,2024-08-23T20:20:24.134784,15.08837046,.0001384,53.2160,180.8183,90.2114,269.9037,0,U,53175,999,11688,.27305E-4,.147E-5,0
STARLINK-4294,2022-083AW,2024-08-24T04:23:16.554336,15.08840217,.0001576,53.2167,154.2254,88.6144,271.5029,0,U,53176,999,11728,.11627E-3,.1563E-4,0
STARLINK-4298,2022-083AX,2024-08-24T03:31:37.223040,15.08843861,.0001322,53.2158,144.4632,101.7655,258.3485,0,U,53177,999,11741,.11619E-3,.1562E-4,0
