STARLINK-4094           
1 53147U 22083R   24237.11981753 -.00000109  00000+0  11233-4 0  9992
2 53147  53.2161 179.5952 0001489  96.7428 263.3733 15.08841359116926
STARLINK-4021           
1 53149U 22083T   24237.08124412  .00000731  00000+0  64019-4 0  9991
2 53149  53.2175 169.9689 0001444  90.3311 269.7847 15.08837090117053
STARLINK-4038           
1 53150U 22083U   24236.83738111  .00000873  00000+0  72964-4 0  9997
2 53150  53.2170 170.8635 0001581  91.0163 269.1010 15.08834654117012
STARLINK-4040           
1 53151U 22083V   24237.09129618  .00000761  00000+0  65892-4 0  9991
2 53151  53.2166 169.7233 0001457 100.3913 259.7244 15.08844554117056
STARLINK-4045           
1 53152U 22083W   24236.83370168  .00000036  00000+0  20349-4 0  9994
2 53152  53.2163 170.8810 0001568  97.6589 262.4581 15.08840386117018
STARLINK-4098           
1 53153U 22083X   24236.82266290 -.00001066  00000+0 -48894-4 0  9995
2 53153  53.2147 170.9294 0001234  91.4041 268.7092 15.08839415117010
STARLINK-4077           
1 53154U 22083Y   24236.56505567  .00000624  00000+0  57263-4 0  9997
2 53154  53.2172 172.0854 0001342  97.8946 262.2199 15.08842099116342
STARLINK-4088           
1 53155U 22083Z   24237.21273780  .00001272  00000+0  97982-4 0  9992
2 53155  53.2171 169.1770 0001487  91.8261 268.2901 15.08840202117072
STARLINK-4087           
1 53156U 22083AA  24237.13544861  .00000086  00000+0  23491-4 0  9991
2 53156  53.2170 169.3982 0001233  74.7329 285.3799 15.08830534117064
STARLINK-4093           
1 53157U 22083AB  24236.80793981  .00001250  00000+0  96591-4 0  9999
2 53157  53.2163 170.9963 0001514  81.8456 278.2708 15.08839674117016
STARLINK-4054           
1 53158U 22083AC  24237.08394036 -.00000660  00000+0 -23377-4 0  9997
2 53158  53.2156 169.7542 0001273  94.6715 265.4422 15.08840790117056
STARLINK-4111           
1 53159U 22083AD  24236.53562383  .00000652  00000+0  59091-4 0  9990
2 53159  53.2188 172.2144 0001626  85.1676 274.9501 15.08837967116348
STARLINK-4096           
1 53160U 22083AE  24236.81162124  .00000817  00000+0  69421-4 0  9993
2 53160  53.2158 170.9822 0001318  89.8165 270.2978 15.08838754117014
STARLINK-4055           
1 53161U 22083AF  24236.85577092  .00002534  00000+0  17724-3 0  9998
2 53161  53.2173 170.7812 0001360  86.5467 273.5681 15.08846999117023
STARLINK-4114           
1 53162U 22083AG  24237.20265797  .00003936  00000+0  26530-3 0  9997
2 53162  53.2174 169.2305 0001408  76.0734 284.0415 15.08833847117074
STARLINK-4104           
1 53163U 22083AH  24237.19438744 -.00001259  00000+0 -61048-4 0  9992
2 53163  53.2176 169.4057 0001468  94.6042 265.5118 15.08817270117073
STARLINK-4116           
1 53164U 22083AJ  24236.52826205  .00000726  00000+0  63704-4 0  9999
2 53164  53.2178 172.2529 0001479 107.7379 252.3775 15.08834694116344
STARLINK-4090           
1 53165U 22083AK  24236.84473840  .00000089  00000+0  23675-4 0  9993
2 53165  53.2166 170.8301 0001231  92.7711 267.3422 15.08837136117028
STARLINK-4110           
1 53166U 22083AL  24236.78586157  .00001600  00000+0  11861-3 0  9996
2 53166  53.2172 171.0963 0001290  82.3045 277.8094 15.08832245117019
STARLINK-3683           
1 53167U 22083AM  24236.79643880 -.00000267  00000+0  13106-5 0  9990
2 53167  53.2164 156.0358 0001325  92.1616 267.9528 15.08836783117220
STARLINK-4105           
1 53168U 22083AN  24237.11338573 -.00000182  00000+0  66660-5 0  9997
2 53168  53.2172 169.6296 0001338  97.5523 262.5621 15.08830401117069
STARLINK-4117           
1 53169U 22083AP  24236.50943518  .00000337  00000+0  39258-4 0  9994
2 53169  53.2166 157.5912 0001262  85.7768 274.3368 15.08833358117175
STARLINK-4095           
1 53170U 22083AQ  24237.20767095  .00003410  00000+0  23217-3 0  9990
2 53170  53.2160 164.1506 0001581  99.3937 260.7234 15.08847445117147
STARLINK-4052           
1 53171U 22083AR  24237.11611425  .00001995  00000+0  14341-3 0  9990
2 53171  53.2164 139.3723 0001280  84.2177 275.8961 15.08839518117485
STARLINK-4299           
1 53172U 22083AS  24237.06782891  .00000166  00000+0  28516-4 0  9990
2 53172  53.2178 164.7427 0001494  88.8046 271.3118 15.08839781117124
STARLINK-4300           
1 53173U 22083AT  24237.15431743  .00000101  00000+0  24416-4 0  9992
2 53173  53.2176 144.4283 0001383 102.7755 257.3392 15.08840918117412
STARLINK-4205           
1 53174U 22083AU  24236.84477001  .00000079  00000+0  23038-4 0  9998
2 53174  53.2170 180.7638 0001432  88.7383 271.3774 15.08837714116889
STARLINK-4292           
1 53175U 22083AV  24236.84750156  .00000147  00000+0  27305-4 0  9991
2 53175  53.2160 180.8183 0001384  90.2114 269.9037 15.08837046116884
STARLINK-4294           
1 53176U 22083AW  24237.18283049  .00001563  00000+0  11627-3 0  9994
2 53176  53.2167 154.2254 0001576  88.6144 271.5029 15.08840217117282
STARLINK-4298           
1 53177U 22083AX  24237.14695860  .00001562  00000+0  11619-3 0  9999
2 53177  53.2158 144.4632 0001322 101.7655 258.3485 15.08843861117419
